OBJECT_NAME,OBJECT_ID,EPOCH,MEAN_MOTION,ECCENTRICITY,INCLINATION,RA_OF_ASC_NODE,ARG_OF_PERICENTER,MEAN_ANOMALY,EPHEMERIS_TYPE,CLASSIFICATION_TYPE,NORAD_CAT_ID,ELEMENT_SET_NO,REV_AT_EPOCH,BSTAR,MEAN_MOTION_DOT,MEAN_MOTION_DDOT
ONEWEB-0158,2021-025N,2026-06-17T23:11:25.800576,13.13470974,.00015856,87.8963,320.0617,96.0575,264.0735,0,U,48054,999,25373,-.8365774E-5,.1E-6,0
ONEWEB-0157,2021-025P,2026-06-17T20:08:36.523104,13.13470366,.00021058,87.8959,320.0928,106.1379,253.9982,0,U,48055,999,25365,-.7706065E-3,-.269E-5,0
ONEWEB-0162,2021-025Q,2026-06-17T23:13:40.163808,13.13469292,.0001965,87.8959,320.0678,93.9028,266.2326,0,U,48056,999,25364,-.77132575E-4,-.15E-6,0
ONEWEB-0155,2021-025R,2026-06-17T23:23:36.558816,13.13469788,.00018209,87.8959,320.0625,102.3487,257.7846,0,U,48057,999,25378,-.54443354E-3,-.186E-5,0
ONEWEB-0149,2021-025S,2026-06-17T22:05:36.810816,13.13470280,.00020262,87.8961,320.0772,93.6168,266.5193,0,U,48058,999,25358,-.55340126E-3,-.189E-5,0
ONEWEB-0148,2021-025T,2026-06-17T23:01:40.696320,13.13469731,.00024033,87.8955,320.0762,92.2771,267.8633,0,U,48059,999,25371,.45424179E-3,.179E-5,0
ONEWEB-0160,2021-025U,2026-06-17T23:26:02.433120,13.13470636,.0001377,87.8955,320.0687,75.8150,284.3132,0,U,48060,999,25366,-.78335261E-3,-.273E-5,0
ONEWEB-0163,2021-025V,2026-06-17T23:04:06.110976,13.13470463,.00019907,87.8962,320.0664,104.0430,256.0921,0,U,48061,999,25378,.2901492E-3,.119E-5,0
ONEWEB-0159,2021-025W,2026-06-17T22:51:55.264608,13.13470148,.00019331,87.8964,320.0617,103.8539,256.2806,0,U,48062,999,25370,.70761862E-3,.271E-5,0
ONEWEB-0164,2021-025X,2026-06-17T22:25:06.425760,13.13470511,.00017863,87.8965,320.0719,96.1364,263.9968,0,U,48063,999,25368,.36584926E-3,.146E-5,0
ONEWEB-0167,2021-025Y,2026-06-17T23:05:19.149216,13.13468116,.00017591,87.8954,320.0759,118.2757,241.8549,0,U,48064,999,25367,.35123494E-3,.141E-5,0
ONEWEB-0166,2021-025Z,2026-06-17T23:38:14.280864,13.13458336,.00020268,87.8962,320.0426,95.7192,264.4168,0,U,48065,999,25375,-.41100107E-2,-.1488E-4,0
ONEWEB-0151,2021-025AA,2026-06-17T23:40:39.733536,13.13470602,.00017613,87.8956,320.0592,100.4120,259.7208,0,U,48066,999,25369,-.80140974E-3,-.28E-5,0
ONEWEB-0170,2021-025AB,2026-06-17T22:03:09.715680,13.13470723,.00013731,87.8958,320.0748,97.4721,262.6564,0,U,48067,999,25364,-.61117557E-3,-.21E-5,0
ONEWEB-0168,2021-025AC,2026-06-17T23:30:55.083744,13.13470050,.00019873,87.8964,320.0623,100.6981,259.4372,0,U,48068,999,25366,-.90646439E-3,-.318E-5,0
ONEWEB-0173,2021-025AD,2026-06-17T23:18:44.042976,13.13469713,.00019711,87.8958,320.0657,107.9801,252.1543,0,U,48069,999,25390,-.45603651E-3,-.154E-5,0
ONEWEB-0171,2021-025AE,2026-06-17T22:22:40.237824,13.13470426,.00017677,87.8954,320.0818,98.7399,261.3930,0,U,48070,999,25371,-.828635E-5,.1E-6,0
ONEWEB-0172,2021-025AF,2026-06-17T21:53:24.046368,13.13469656,.00018005,87.8960,320.0758,102.7459,257.3872,0,U,48071,999,25460,-.1351975E-2,-.481E-5,0
ONEWEB-0174,2021-025AG,2026-06-17T23:16:18.310368,13.13469936,.00019933,87.8959,320.0633,96.4046,263.7310,0,U,48072,999,25393,-.33918759E-3,-.111E-5,0
ONEWEB-0175,2021-025AH,2026-06-17T22:10:28.925760,13.13470836,.00015519,87.8965,320.0570,103.8013,256.3289,0,U,48073,999,25358,-.41760144E-3,-.14E-5,0
ONEWEB-0177,2021-025AJ,2026-06-17T22:27:32.393376,13.13471387,.00020583,87.8960,320.0731,100.1418,259.9944,0,U,48074,999,25377,.50186955E-3,.196E-5,0
ONEWEB-0178,2021-025AK,2026-06-17T22:54:33.215040,13.13467976,.0001739,87.8948,320.0818,105.0629,255.0692,0,U,48075,999,25382,.80979908E-3,.308E-5,0
ONEWEB-0108,2021-025AL,2026-06-17T21:55:50.999808,13.13470238,.00018979,87.8962,320.0689,90.2451,269.8896,0,U,48076,999,25374,-.69508344E-3,-.241E-5,0
ONEWEB-0169,2021-025AM,2026-06-17T22:42:10.452384,13.13469862,.00019414,87.8957,320.0703,95.8823,264.2527,0,U,48077,999,25240,.88658726E-3,.337E-5,0
ONEWEB-0176,2021-031A,2026-06-18T07:41:53.664864,13.14503517,.00019063,87.8964,289.4732,104.2895,255.8446,0,U,48210,999,24846,.61768755E-3,.242E-5,0
ONEWEB-0184,2021-031B,2026-06-18T07:03:03.932928,13.14502928,.00016117,87.8975,289.4792,126.6755,233.4523,0,U,48211,999,24843,-.26777868E-3,-.86E-6,0
ONEWEB-0179,2021-031C,2026-06-18T06:55:04.242720,14.25523838,.02187241,87.8990,286.7071,253.5771,104.1282,0,U,48212,999,24920,.51282005E-4,.172E-5,0
ONEWEB-0180,2021-031D,2026-06-17T20:09:58.824288,13.14503530,.00022306,87.8972,289.5659,110.8972,249.2397,0,U,48213,999,24830,-.38414281E-3,-.13E-5,0
ONEWEB-0218,2021-031E,2026-06-18T07:39:36.775296,13.14500742,.00021875,87.8971,289.4699,136.6713,223.4589,0,U,48214,999,24852,.21225418E-2,.8E-5,0
ONEWEB-0209,2021-031F,2026-06-17T20:25:57.304416,13.14502146,.00021272,87.8966,289.5797,104.8014,255.3352,0,U,48215,999,24846,.21076043E-3,.91E-6,0
